ONEWEB-0271             
1 48989U 21060Y   24202.88670497 -.00000010  00000+0 -58488-4 0  9995
2 48989  87.9111   7.3873 0001740  79.8155 280.3172 13.16593919148049
ONEWEB-0272             
1 48990U 21060Z   24202.90886280  .00000126  00000+0  29654-3 0  9997
2 48990  87.9114   7.4119 0001776  83.7417 276.3917 13.16592589147999
ONEWEB-0273             
1 48991U 21060AA  24203.15902856  .00000025  00000+0  32249-4 0  9997
2 48991  87.9113   7.3490 0001614  88.9503 271.1813 13.16594133149306
ONEWEB-0274             
1 48992U 21060AB  24203.18436433 -.00000068  00000+0 -21076-3 0  9998
2 48992  87.9120   7.3596 0002278  83.8270 276.3121 13.16594115149347
ONEWEB-0275             
1 48993U 21060AC  24203.17327995 -.00000036  00000+0 -12876-3 0  9993
2 48993  87.9111   7.3418 0001679  87.1375 272.9948 13.16595513149261
ONEWEB-0276             
1 48994U 21060AD  24202.90253797  .00000067  00000+0  14131-3 0  9990
2 48994  87.9112   7.3918 0001575  84.8120 275.3190 13.16593814147957
ONEWEB-0277             
1 48995U 21060AE  24202.99120266  .00000130  00000+0  30764-3 0  9995
2 48995  87.9113   7.4123 0001651  73.4540 286.6772 13.16594333149245
ONEWEB-0278             
1 48996U 21060AF  24202.90570250  .00000063  00000+0  13248-3 0  9992
2 48996  87.9113   7.3881 0001610 101.2882 258.8430 13.16593950148076
ONEWEB-0279             
1 48997U 21060AG  24203.21759972  .00000161  00000+0  38737-3 0  9997
2 48997  87.9112   7.3236 0001730  77.9442 282.1883 13.16596916149342
ONEWEB-0280             
1 48998U 21060AH  24202.92787532  .00000019  00000+0  17361-4 0  9991
2 48998  87.9114   7.3830 0001522  91.9270 268.2035 13.16594308147940
ONEWEB-0281             
1 48999U 21060AJ  24202.93420308 -.00000017  00000+0 -77342-4 0  9993
2 48999  87.9113   7.3833 0002021  91.5791 268.5571 13.16593749148017
ONEWEB-0282             
1 49000U 21060AK  24202.88829186  .00000039  00000+0  67342-4 0  9999
2 49000  87.9113   7.4090 0001547  83.8033 276.3274 13.16594565149309
ONEWEB-0283             
1 49001U 21060AL  24202.87718872 -.00000290  00000+0 -79136-3 0  9992
2 49001  87.9111   7.4173 0001791  83.0498 277.0837 13.16594314147996
ONEWEB-0284             
1 49002U 21060AM  24202.94687461 -.00000073  00000+0 -22420-3 0  9993
2 49002  87.9107   7.3852 0001575  90.3634 269.7678 13.16594399147981
ONEWEB-0285             
1 49075U 21075A   24202.86250740  .00000524  00000+0  14200-2 0  9991
2 49075  87.8955 129.3331 0001952  76.6954 283.4392 13.12443299143877
ONEWEB-0286             
1 49076U 21075B   24203.21515626 -.00000307  00000+0 -88936-3 0  9998
2 49076  87.8951 129.2647 0002123  86.2541 273.8830 13.12443940144259
ONEWEB-0287             
1 49077U 21075C   24202.90835093  .00000049  00000+0  92532-4 0  9996
2 49077  87.9189 144.5027 0001850  86.6137 273.5206 13.17650171141934
ONEWEB-0288             
1 49078U 21075D   24203.20136776 -.00000700  00000+0 -19818-2 0  9993
2 49078  87.8956 129.2712 0001704  81.8792 278.2530 13.12445359144883
ONEWEB-0289             
1 49079U 21075E   24203.08929572  .00000044  00000+0  80172-4 0  9996
2 49079  87.9191 144.4946 0002044  76.8207 283.3152 13.17650689143501
ONEWEB-0290             
1 49080U 21075F   24202.91964852  .00000039  00000+0  66686-4 0  9997
2 49080  87.9194 144.4890 0001594  85.3583 274.7731 13.17647531141928
ONEWEB-0291             
1 49081U 21075G   24203.13130728  .00000007  00000+0 -15743-4 0  9994
2 49081  87.9184 144.4661 0001903  85.3623 274.7726 13.17650729142932
ONEWEB-0293             
1 49082U 21075H   24202.85340876  .00000024  00000+0  28232-4 0  9995
2 49082  87.9188 144.5368 0001778  82.5922 277.5412 13.17647415141933
ONEWEB-0294             
1 49083U 21075J   24203.20785430 -.00000320  00000+0 -92470-3 0  9990
2 49083  87.8950 129.2692 0001363  88.4045 271.7240 13.12443086144279
ONEWEB-0295             
1 49084U 21075K   24202.85503997  .00000036  00000+0  60810-4 0  9993
2 49084  87.9191 144.5144 0001990  92.9735 267.1625 13.17651246141897
ONEWEB-0296             
1 49085U 21075L   24203.18838694  .00000142  00000+0  36047-3 0  9998
2 49085  87.8953 129.2747 0001682 100.4231 259.7087 13.12443968144275
ONEWEB-0297             
1 49086U 21075M   24202.83801647 -.00000191  00000+0 -56572-3 0  9999
2 49086  87.8962 129.3533 0002066  79.1605 280.9756 13.12442235143841
ONEWEB-0298             
1 49087U 21075N   24202.93420433  .00000132  00000+0  30667-3 0  9991
2 49087  87.9190 144.5172 0002212  84.5429 275.5955 13.17649720141933
ONEWEB-0299             
1 49088U 21075P   24203.08767886  .00000080  00000+0  17309-3 0  9995
2 49088  87.9186 144.4547 0002176  87.5311 272.6070 13.17647531142908
ONEWEB-0300             
1 49089U 21075Q   24203.21109577 -.00000355  00000+0 -10230-2 0  9990
2 49089  87.8951 129.2660 0002313  71.9868 288.1512 13.12444520144905
ONEWEB-0301             
1 49090U 21075R   24203.19488391 -.00000065  00000+0 -21466-3 0  9995
2 49090  87.8951 129.2728 0002228  72.7832 287.3541 13.12442897144264
ONEWEB-0302             
1 49091U 21075S   24203.18190782  .00000369  00000+0  99161-3 0  9991
2 49091  87.8953 129.2740 0001822  82.2518 277.8817 13.12442796144254
ONEWEB-0304             
1 49092U 21075T   24202.90996068  .00000087  00000+0  18978-3 0  9996
2 49092  87.9190 144.5068 0001975  88.0116 272.1242 13.17651319141883
ONEWEB-0305             
1 49093U 21075U   24202.90188363  .00000052  00000+0  10080-3 0  9996
2 49093  87.9185 144.4943 0002212  92.8463 267.2921 13.17648777142886
ONEWEB-0308             
1 49094U 21075V   24203.17541710  .00000473  00000+0  12793-2 0  9995
2 49094  87.8952 129.2743 0002037  76.0275 284.1080 13.12443294144267
ONEWEB-0309             
1 49095U 21075W   24202.90673529  .00000065  00000+0  13299-3 0  9990
2 49095  87.9190 144.4992 0001490  84.3262 275.8039 13.17650470142875
ONEWEB-0310             
1 49096U 21075X   24202.88506018 -.00000244  00000+0 -71313-3 0  9998
2 49096  87.8962 129.3427 0001835  77.1396 282.9937 13.12442202143850
ONEWEB-0311             
1 49097U 21075Y   24202.91318413  .00000033  00000+0  52278-4 0  9997
2 49097  87.9190 144.4988 0002263  91.2762 268.8629 13.17647882141939
ONEWEB-0312             
1 49098U 21075Z   24202.85180142  .00000070  00000+0  14641-3 0  9999
2 49098  87.9191 144.5428 0001883  94.5969 265.5377 13.17648600141903
ONEWEB-0313             
1 49099U 21075AA  24202.90511994  .00000085  00000+0  18541-3 0  9998
2 49099  87.9190 144.5347 0001991  87.8214 272.3145 13.17649223142903
ONEWEB-0314             
1 49100U 21075AB  24202.89864977  .00000081  00000+0  17501-3 0  9992
2 49100  87.9186 144.4926 0001949  93.1446 266.9908 13.17647638142862
ONEWEB-0315             
1 49101U 21075AC  24203.08783075  .00000441  00000+0  11916-2 0  9997
2 49101  87.8951 129.2849 0002085  75.8059 284.3301 13.12444403144869
ONEWEB-0316             
1 49102U 21075AD  24202.76497353  .00000047  00000+0  85537-4 0  9997
2 49102  87.9150 114.1075 0002061  82.0869 278.0497 13.18684442145423
ONEWEB-0317             
1 49103U 21075AE  24203.15757713  .00000255  00000+0  67349-3 0  9992
2 49103  87.8952 129.2810 0001737  64.3870 295.7438 13.12444874144888
ONEWEB-0318             
1 49104U 21075AF  24202.83768803  .00000044  00000+0  80109-4 0  9995
2 49104  87.9148 114.0858 0002136  84.4071 275.7305 13.18684873145390
ONEWEB-0319             
1 49105U 21075AG  24202.91480322  .00000043  00000+0  78696-4 0  9999
2 49105  87.9190 144.5240 0002322  93.3189 266.8208 13.17648381141917
ONEWEB-0323             
1 49106U 21075AH  24202.84289211 -.00000009  00000+0 -59300-4 0  9991
2 49106  87.8951 129.3306 0002044  82.9869 277.1492 13.12444844143214
ONEWEB-0329             
1 49107U 21075AJ  24202.92288847  .00000027  00000+0  37477-4 0  9994
2 49107  87.9191 144.5262 0002036  86.0622 274.0742 13.17650271141899
ONEWEB-0330             
1 49108U 21075AK  24203.22824279  .00000049  00000+0  92920-4 0  9992
2 49108  87.9192 144.4666 0001909  86.7469 273.3881 13.17648769142966
ONEWEB-0292             
1 49186U 21083A   24202.74871773 -.00000253  00000+0 -72694-3 0  9998
2 49186  87.8919  98.8775 0001985  78.4175 281.7177 13.13469578139509
ONEWEB-0303             
1 49187U 21083B   24203.21391154  .00000056  00000+0  10956-3 0  9994
2 49187  87.9146 114.0110 0002103  81.7638 278.3733 13.18684879139532
ONEWEB-0306             
1 49188U 21083C   24202.82504720  .00000094  00000+0  20444-3 0  9991
2 49188  87.9147 114.0753 0001805  74.0830 286.0501 13.18687378138247
ONEWEB-0307             
1 49189U 21083D   24202.97169147 -.00000246  00000+0 -70973-3 0  9991
2 49189  87.8922  98.8332 0001466  75.8896 284.2396 13.13471241139534
ONEWEB-0320             
1 49190U 21083E   24203.21075541  .00000059  00000+0  11756-3 0  9999
2 49190  87.9148 114.0233 0001921  77.6222 282.5124 13.18685134139530
ONEWEB-0321             
1 49191U 21083F   24203.14753771  .00000096  00000+0  20365-3 0  9997
2 49191  87.9184  52.9111 0001659  77.9535 282.1784 13.20771016146235
ONEWEB-0322             
1 49192U 21083G   24203.19625548 -.00000453  00000+0 -12751-2 0  9991
2 49192  87.8922  98.7777 0001568  63.2874 296.8416 13.13469771140843
ONEWEB-0324             
1 49193U 21083H   24203.19652840  .00000053  00000+0  10232-3 0  9994
2 49193  87.9148 114.0076 0001825  84.9922 275.1418 13.18684811139556
ONEWEB-0325             
1 49194U 21083J   24203.20127425  .00000077  00000+0  16184-3 0  9991
2 49194  87.9148 114.0211 0001938  75.4944 284.6403 13.18687777139566
ONEWEB-0326             
1 49195U 21083K   24203.21549160  .00000052  00000+0  99285-4 0  9994
2 49195  87.9146 114.0162 0002247  90.3843 269.7546 13.18684443139556
ONEWEB-0327             
1 49196U 21083L   24203.18944676  .00000107  00000+0  23738-3 0  9992
2 49196  87.9146 114.0339 0002258  84.0727 276.0662 13.18684847139576
